[{"OBJECT_NAME":"STARLINK-6032","OBJECT_ID":"2023-099AV","EPOCH":"2026-03-09T12:52:49.273824","MEAN_MOTION":15.02535139,"ECCENTRICITY":0.00013649,"INCLINATION":43.0022,"RA_OF_ASC_NODE":236.7639,"ARG_OF_PERICENTER":276.1877,"MEAN_ANOMALY":83.881,"EPHEMERIS_TYPE":0,"CLASSIFICATION_TYPE":"U","NORAD_CAT_ID":57371,"ELEMENT_SET_NO":999,"REV_AT_EPOCH":14624,"BSTAR":1.9683559e-5,"MEAN_MOTION_DOT":6.2e-7,"MEAN_MOTION_DDOT":0},{"OBJECT_NAME":"FENGYUN 1C DEB","OBJECT_ID":"1999-025FN","EPOCH":"2026-03-09T22:18:23.675616","MEAN_MOTION":14.79879453,"ECCENTRICITY":0.01939452,"INCLINATION":97.9352,"RA_OF_ASC_NODE":118.672,"ARG_OF_PERICENTER":81.3681,"MEAN_ANOMALY":358.3473,"EPHEMERIS_TYPE":0,"CLASSIFICATION_TYPE":"U","NORAD_CAT_ID":29868,"ELEMENT_SET_NO":999,"REV_AT_EPOCH":1584,"BSTAR":0.0007539816,"MEAN_MOTION_DOT":7.789e-5,"MEAN_MOTION_DDOT":0}]
